IRIDIUM 119             
1 42959U 17061E   24230.60474632  .00000108  00000+0  31543-4 0  9995
2 42959  86.3976 304.6493 0002345  87.8095 272.3369 14.34210164358981
IRIDIUM 132             
1 42961U 17061G   24231.25803106  .00000678  00000+0  23502-3 0  9999
2 42961  86.3974 304.3774 0002171  90.2334 269.9110 14.34210942359084
IRIDIUM 136             
1 42962U 17061H   24231.15022402  .00000044  00000+0  85138-5 0  9993
2 42962  86.3978 304.4275 0002416  94.4747 265.6725 14.34211216359082
IRIDIUM 125             
1 42964U 17061K   24231.21364221  .00000634  00000+0  21921-3 0  9993
2 42964  86.3979 304.5002 0002590  82.8510 277.2981 14.34213985359118
IRIDIUM 135             
1 43070U 17083A   24231.11799877  .00000137  00000+0  42026-4 0  9992
2 43070  86.3928 241.1725 0002133  97.9392 262.2046 14.34217259348399
IRIDIUM 138             
1 43071U 17083B   24231.56198534  .00000194  00000+0  62196-4 0  9998
2 43071  86.3919 240.6962 0002731  87.6547 272.4961 14.34216598348449
